{
  "type": "FeatureCollection",
  "features": [
    {
      "type": "Feature",
      "properties": {
        "norad_id": 38833,
        "name": "GPS BIIF-3  (PRN 24)",
        "group": "gps-ops",
        "lat": -38.20371472034905,
        "lon": 6.638054124882312,
        "alt_km": 20639.732141502114,
        "timestamp": "2025-12-16T15:45:51.304695+00:00",
        "meta_object_name": "GPS BIIF-3  (PRN 24)",
        "meta_object_id": "2012-053A",
        "meta_epoch": "2025-12-14T20:17:27.870144",
        "meta_mean_motion": 2.00565059,
        "meta_eccentricity": 0.01759136,
        "meta_inclination": 53.558,
        "meta_ra_of_asc_node": 151.1523,
        "meta_arg_of_pericenter": 64.0191,
        "meta_mean_anomaly": 297.785,
        "meta_ephemeris_type": 0,
        "meta_classification_type": "U",
        "meta_norad_cat_id": 38833,
        "meta_element_set_no": 999,
        "meta_rev_at_epoch": 9574,
        "meta_bstar": 0,
        "meta_mean_motion_dot": 8.8e-07,
        "meta_mean_motion_ddot": 0,
        "tle_line1": "1 38833U 12053A   25348.84546146  .00000088  00000+0  00000+0 0  9990",
        "tle_line2": "2 38833  53.5580 151.1523 0175913  64.0191 297.7850  2.00565059 95743"
      },
      "geometry": {
        "type": "Point",
        "coordinates": [
          6.638054124882312,
          -38.20371472034905
        ]
      }
    },
    {
      "type": "Feature",
      "properties": {
        "norad_id": 39166,
        "name": "GPS BIIF-4  (PRN 27)",
        "group": "gps-ops",
        "lat": -27.343281627389736,
        "lon": -105.10878453690195,
        "alt_km": 20134.437976854395,
        "timestamp": "2025-12-16T15:45:51.304707+00:00",
        "meta_object_name": "GPS BIIF-4  (PRN 27)",
        "meta_object_id": "2013-023A",
        "meta_epoch": "2025-12-15T04:59:33.811872",
        "meta_mean_motion": 2.00564736,
        "meta_eccentricity": 0.01378529,
        "meta_inclination": 54.65,
        "meta_ra_of_asc_node": 276.4679,
        "meta_arg_of_pericenter": 48.4851,
        "meta_mean_anomaly": 312.7012,
        "meta_ephemeris_type": 0,
        "meta_classification_type": "U",
        "meta_norad_cat_id": 39166,
        "meta_element_set_no": 999,
        "meta_rev_at_epoch": 9219,
        "meta_bstar": 0,
        "meta_mean_motion_dot": -6.8e-07,
        "meta_mean_motion_ddot": 0,
        "tle_line1": "1 39166U 13023A   25349.20803023 -.00000068  00000+0  00000+0 0  9998",
        "tle_line2": "2 39166  54.6500 276.4679 0137852  48.4851 312.7012  2.00564736 92194"
      },
      "geometry": {
        "type": "Point",
        "coordinates": [
          -105.10878453690195,
          -27.343281627389736
        ]
      }
    },
    {
      "type": "Feature",
      "properties": {
        "norad_id": 39533,
        "name": "GPS BIIF-5  (PRN 30)",
        "group": "gps-ops",
        "lat": -23.094920734611893,
        "lon": 138.43350481997982,
        "alt_km": 20234.573259447396,
        "timestamp": "2025-12-16T15:45:51.304718+00:00",
        "meta_object_name": "GPS BIIF-5  (PRN 30)",
        "meta_object_id": "2014-008A",
        "meta_epoch": "2025-12-15T16:48:38.811744",
        "meta_mean_motion": 2.00574628,
        "meta_eccentricity": 0.00792998,
        "meta_inclination": 53.6317,
        "meta_ra_of_asc_node": 156.8039,
        "meta_arg_of_pericenter": 226.551,
        "meta_mean_anomaly": 132.7971,
        "meta_ephemeris_type": 0,
        "meta_classification_type": "U",
        "meta_norad_cat_id": 39533,
        "meta_element_set_no": 999,
        "meta_rev_at_epoch": 8600,
        "meta_bstar": 0,
        "meta_mean_motion_dot": 9e-07,
        "meta_mean_motion_ddot": 0,
        "tle_line1": "1 39533U 14008A   25349.70044921  .00000090  00000+0  00000+0 0  9993",
        "tle_line2": "2 39533  53.6317 156.8039 0079299 226.5510 132.7971  2.00574628 86007"
      },
      "geometry": {
        "type": "Point",
        "coordinates": [
          138.43350481997982,
          -23.094920734611893
        ]
      }
    },
    {
      "type": "Feature",
      "properties": {
        "norad_id": 39741,
        "name": "GPS BIIF-6  (PRN 06)",
        "group": "gps-ops",
        "lat": 42.68131550002834,
        "lon": 121.10970784870703,
        "alt_km": 20278.86729628256,
        "timestamp": "2025-12-16T15:45:51.304730+00:00",
        "meta_object_name": "GPS BIIF-6  (PRN 06)",
        "meta_object_id": "2014-026A",
        "meta_epoch": "2025-12-15T11:38:58.689600",
        "meta_mean_motion": 2.00561238,
        "meta_eccentricity": 0.00392615,
        "meta_inclination": 56.5825,
        "meta_ra_of_asc_node": 338.6695,
        "meta_arg_of_pericenter": 318.8449,
        "meta_mean_anomaly": 40.8708,
        "meta_ephemeris_type": 0,
        "meta_classification_type": "U",
        "meta_norad_cat_id": 39741,
        "meta_element_set_no": 999,
        "meta_rev_at_epoch": 8485,
        "meta_bstar": 0,
        "meta_mean_motion_dot": -8.7e-07,
        "meta_mean_motion_ddot": 0,
        "tle_line1": "1 39741U 14026A   25349.48540150 -.00000087  00000+0  00000+0 0  9991",
        "tle_line2": "2 39741  56.5825 338.6695 0039261 318.8449  40.8708  2.00561238 84854"
      },
      "geometry": {
        "type": "Point",
        "coordinates": [
          121.10970784870703,
          42.68131550002834
        ]
      }
    },
    {
      "type": "Feature",
      "properties": {
        "norad_id": 40105,
        "name": "GPS BIIF-7  (PRN 09)",
        "group": "gps-ops",
        "lat": 46.96831059917525,
        "lon": 143.74135469482215,
        "alt_km": 20128.529583669122,
        "timestamp": "2025-12-16T15:45:51.304742+00:00",
        "meta_object_name": "GPS BIIF-7  (PRN 09)",
        "meta_object_id": "2014-045A",
        "meta_epoch": "2025-12-12T01:59:18.865536",
        "meta_mean_motion": 2.00572516,
        "meta_eccentricity": 0.00326941,
        "meta_inclination": 55.2287,
        "meta_ra_of_asc_node": 95.9251,
        "meta_arg_of_pericenter": 119.8618,
        "meta_mean_anomaly": 240.4523,
        "meta_ephemeris_type": 0,
        "meta_classification_type": "U",
        "meta_norad_cat_id": 40105,
        "meta_element_set_no": 999,
        "meta_rev_at_epoch": 8232,
        "meta_bstar": 0,
        "meta_mean_motion_dot": -9e-08,
        "meta_mean_motion_ddot": 0,
        "tle_line1": "1 40105U 14045A   25346.08285724 -.00000009  00000+0  00000+0 0  9998",
        "tle_line2": "2 40105  55.2287  95.9251 0032694 119.8618 240.4523  2.00572516 82323"
      },
      "geometry": {
        "type": "Point",
        "coordinates": [
          143.74135469482215,
          46.96831059917525
        ]
      }
    },
    {
      "type": "Feature",
      "properties": {
        "norad_id": 40294,
        "name": "GPS BIIF-8  (PRN 03)",
        "group": "gps-ops",
        "lat": 22.946216166178687,
        "lon": -158.02872079560248,
        "alt_km": 20159.142369714442,
        "timestamp": "2025-12-16T15:45:51.304753+00:00",
        "meta_object_name": "GPS BIIF-8  (PRN 03)",
        "meta_object_id": "2014-068A",
        "meta_epoch": "2025-12-15T10:49:04.415520",
        "meta_mean_motion": 2.0056507,
        "meta_eccentricity": 0.00607763,
        "meta_inclination": 56.8599,
        "meta_ra_of_asc_node": 38.0411,
        "meta_arg_of_pericenter": 69.1257,
        "meta_mean_anomaly": 291.5793,
        "meta_ephemeris_type": 0,
        "meta_classification_type": "U",
        "meta_norad_cat_id": 40294,
        "meta_element_set_no": 999,
        "meta_rev_at_epoch": 8152,
        "meta_bstar": 0,
        "meta_mean_motion_dot": -8.8e-07,
        "meta_mean_motion_ddot": 0,
        "tle_line1": "1 40294U 14068A   25349.45074555 -.00000088  00000+0  00000+0 0  9991",
        "tle_line2": "2 40294  56.8599  38.0411 0060776  69.1257 291.5793  2.00565070 81523"
      },
      "geometry": {
        "type": "Point",
        "coordinates": [
          -158.02872079560248,
          22.946216166178687
        ]
      }
    },
    {
      "type": "Feature",
      "properties": {
        "norad_id": 40534,
        "name": "GPS BIIF-9  (PRN 26)",
        "group": "gps-ops",
        "lat": 42.88210632261409,
        "lon": -104.23358195115706,
        "alt_km": 19908.185920631888,
        "timestamp": "2025-12-16T15:45:51.304764+00:00",
        "meta_object_name": "GPS BIIF-9  (PRN 26)",
        "meta_object_id": "2015-013A",
        "meta_epoch": "2025-12-15T13:56:13.399296",
        "meta_mean_motion": 2.00562492,
        "meta_eccentricity": 0.01071717,
        "meta_inclination": 53.1973,
        "meta_ra_of_asc_node": 211.7725,
        "meta_arg_of_pericenter": 38.5497,
        "meta_mean_anomaly": 322.2983,
        "meta_ephemeris_type": 0,
        "meta_classification_type": "U",
        "meta_norad_cat_id": 40534,
        "meta_element_set_no": 999,
        "meta_rev_at_epoch": 7814,
        "meta_bstar": 0,
        "meta_mean_motion_dot": 7.3e-07,
        "meta_mean_motion_ddot": 0,
        "tle_line1": "1 40534U 15013A   25349.58071064  .00000073  00000+0  00000+0 0  9998",
        "tle_line2": "2 40534  53.1973 211.7725 0107171  38.5497 322.2983  2.00562492 78143"
      },
      "geometry": {
        "type": "Point",
        "coordinates": [
          -104.23358195115706,
          42.88210632261409
        ]
      }
    }
  ]
}